{"type": "FeatureCollection", "features": [ {"type": "Feature", "properties": {"norad_id": 37834, "name": "INTELSAT 18 (IS-18)", "group": "intelsat", "lat": -0.027428365480664088, "lon": -148.90164712443536, "alt_km": 35781.876935012326, "timestamp": "2025-12-11T20:41:14.754896+00:00", "meta": {"OBJECT_NAME": "INTELSAT 18 (IS-18)", "OBJECT_ID": "2011-056A", "EPOCH": "2025-12-11T14:22:02.643744", "MEAN_MOTION": 1.00271361, "ECCENTRICITY": 0.00019177, "INCLINATION": 0.0144, "RA_OF_ASC_NODE": 296.0641, "ARG_OF_PERICENTER": 333.0333, "MEAN_ANOMALY": 206.9647, "EPHEMERIS_TYPE": 0, "CLASSIFICATION_TYPE": "U", "NORAD_CAT_ID": 37834, "ELEMENT_SET_NO": 999, "REV_AT_EPOCH": 5193, "BSTAR": 0, "MEAN_MOTION_DOT": 6e-07, "MEAN_MOTION_DDOT": 0}, "tle": {"line1": "1 37834U 11056A   25345.59864171  .00000060  00000+0  00000+0 0  9992", "line2": "2 37834   0.0144 296.0641 0001917 333.0333 206.9647  1.00271361 51933"}}, "geometry": {"type": "Point", "coordinates": [-148.90164712443536, -0.027428365480664088]}}, {"type": "Feature", "properties": {"norad_id": 38098, "name": "INTELSAT 22 (IS-22)", "group": "intelsat", "lat": 0.017344342003343505, "lon": 103.23992975994672, "alt_km": 35793.32279169284, "timestamp": "2025-12-11T20:41:14.754909+00:00", "meta": {"OBJECT_NAME": "INTELSAT 22 (IS-22)", "OBJECT_ID": "2012-011A", "EPOCH": "2025-12-11T13:51:13.097088", "MEAN_MOTION": 1.00271195, "ECCENTRICITY": 0.00017306, "INCLINATION": 0.002, "RA_OF_ASC_NODE": 0.2192, "ARG_OF_PERICENTER": 268.3205, "MEAN_ANOMALY": 91.923, "EPHEMERIS_TYPE": 0, "CLASSIFICATION_TYPE": "U", "NORAD_CAT_ID": 38098, "ELEMENT_SET_NO": 999, "REV_AT_EPOCH": 530, "BSTAR": 0, "MEAN_MOTION_DOT": -5.1e-07, "MEAN_MOTION_DDOT": 0}, "tle": {"line1": "1 38098U 12011A   25345.57723492 -.00000051  00000+0  00000+0 0  9996", "line2": "2 38098   0.0020   0.2192 0001730 268.3205  91.9230  1.00271195  5301"}}, "geometry": {"type": "Point", "coordinates": [103.23992975994672, 0.017344342003343505]}}, {"type": "Feature", "properties": {"norad_id": 38356, "name": "INTELSAT 19 (IS-19)", "group": "intelsat", "lat": -0.01591609053171918, "lon": -162.90562293657453, "alt_km": 35781.42402248859, "timestamp": "2025-12-11T20:41:14.754920+00:00", "meta": {"OBJECT_NAME": "INTELSAT 19 (IS-19)", "OBJECT_ID": "2012-030A", "EPOCH": "2025-12-11T14:18:03.027168", "MEAN_MOTION": 1.00272216, "ECCENTRICITY": 0.00034477, "INCLINATION": 0.009, "RA_OF_ASC_NODE": 344.6079, "ARG_OF_PERICENTER": 284.4617, "MEAN_ANOMALY": 192.0056, "EPHEMERIS_TYPE": 0, "CLASSIFICATION_TYPE": "U", "NORAD_CAT_ID": 38356, "ELEMENT_SET_NO": 999, "REV_AT_EPOCH": 4857, "BSTAR": 0, "MEAN_MOTION_DOT": -4.9e-07, "MEAN_MOTION_DDOT": 0}, "tle": {"line1": "1 38356U 12030A   25345.59586837 -.00000049  00000+0  00000+0 0  9993", "line2": "2 38356   0.0090 344.6079 0003447 284.4617 192.0056  1.00272216 48577"}}, "geometry": {"type": "Point", "coordinates": [-162.90562293657453, -0.01591609053171918]}}, {"type": "Feature", "properties": {"norad_id": 38740, "name": "INTELSAT 20 (IS-20)", "group": "intelsat", "lat": 0.0021436530860383498, "lon": 99.60143878181364, "alt_km": 35785.09245736831, "timestamp": "2025-12-11T20:41:14.754932+00:00", "meta": {"OBJECT_NAME": "INTELSAT 20 (IS-20)", "OBJECT_ID": "2012-043A", "EPOCH": "2025-12-11T02:03:38.556288", "MEAN_MOTION": 1.00271347, "ECCENTRICITY": 0.00027974, "INCLINATION": 0.0063, "RA_OF_ASC_NODE": 85.143, "ARG_OF_PERICENTER": 99.0256, "MEAN_ANOMALY": 355.3044, "EPHEMERIS_TYPE": 0, "CLASSIFICATION_TYPE": "U", "NORAD_CAT_ID": 38740, "ELEMENT_SET_NO": 999, "REV_AT_EPOCH": 4886, "BSTAR": 0, "MEAN_MOTION_DOT": -1.9e-07, "MEAN_MOTION_DDOT": 0}, "tle": {"line1": "1 38740U 12043A   25345.08586292 -.00000019  00000+0  00000+0 0  9990", "line2": "2 38740   0.0063  85.1430 0002797  99.0256 355.3044  1.00271347 48865"}}, "geometry": {"type": "Point", "coordinates": [99.60143878181364, 0.0021436530860383498]}}, {"type": "Feature", "properties": {"norad_id": 38749, "name": "INTELSAT 21 (IS-21)", "group": "intelsat", "lat": -0.019151395173837626, "lon": -26.86413446106754, "alt_km": 35784.25657151539, "timestamp": "2025-12-11T20:41:14.754943+00:00", "meta": {"OBJECT_NAME": "INTELSAT 21 (IS-21)", "OBJECT_ID": "2012-045A", "EPOCH": "2025-12-11T04:40:28.057152", "MEAN_MOTION": 1.00269962, "ECCENTRICITY": 0.00020675, "INCLINATION": 0.0204, "RA_OF_ASC_NODE": 58.4062, "ARG_OF_PERICENTER": 200.7387, "MEAN_ANOMALY": 193.1251, "EPHEMERIS_TYPE": 0, "CLASSIFICATION_TYPE": "U", "NORAD_CAT_ID": 38749, "ELEMENT_SET_NO": 999, "REV_AT_EPOCH": 4864, "BSTAR": 0, "MEAN_MOTION_DOT": -2.79e-06, "MEAN_MOTION_DDOT": 0}, "tle": {"line1": "1 38749U 12045A   25345.19476918 -.00000279  00000+0  00000+0 0  9994", "line2": "2 38749   0.0204  58.4062 0002067 200.7387 193.1251  1.00269962 48645"}}, "geometry": {"type": "Point", "coordinates": [-26.86413446106754, -0.019151395173837626]}}, {"type": "Feature", "properties": {"norad_id": 38867, "name": "INTELSAT 23 (IS-23)", "group": "intelsat", "lat": -0.03955826551102099, "lon": -21.987190909162518, "alt_km": 35796.06308355225, "timestamp": "2025-12-11T20:41:14.754955+00:00", "meta": {"OBJECT_NAME": "INTELSAT 23 (IS-23)", "OBJECT_ID": "2012-057A", "EPOCH": "2025-12-09T20:10:10.491744", "MEAN_MOTION": 1.00260311, "ECCENTRICITY": 0.00020064, "INCLINATION": 0.0432, "RA_OF_ASC_NODE": 94.7791, "ARG_OF_PERICENTER": 102.2636, "MEAN_ANOMALY": 131.2856, "EPHEMERIS_TYPE": 0, "CLASSIFICATION_TYPE": "U", "NORAD_CAT_ID": 38867, "ELEMENT_SET_NO": 999, "REV_AT_EPOCH": 4805, "BSTAR": 0, "MEAN_MOTION_DOT": -2.82e-06, "MEAN_MOTION_DDOT": 0}, "tle": {"line1": "1 38867U 12057A   25343.84039921 -.00000282  00000+0  00000+0 0  9991", "line2": "2 38867   0.0432  94.7791 0002006 102.2636 131.2856  1.00260311 48055"}}, "geometry": {"type": "Point", "coordinates": [-21.987190909162518, -0.03955826551102099]}}, {"type": "Feature", "properties": {"norad_id": 39360, "name": "FM-6", "group": "intelsat", "lat": -0.010806618058685257, "lon": -85.01095074560345, "alt_km": 35789.100076517854, "timestamp": "2025-12-11T20:41:14.754966+00:00", "meta": {"OBJECT_NAME": "FM-6", "OBJECT_ID": "2013-058A", "EPOCH": "2025-12-10T23:15:42.718752", "MEAN_MOTION": 1.00269361, "ECCENTRICITY": 0.00028563, "INCLINATION": 0.0087, "RA_OF_ASC_NODE": 66.7059, "ARG_OF_PERICENTER": 106.8032, "MEAN_ANOMALY": 139.1966, "EPHEMERIS_TYPE": 0, "CLASSIFICATION_TYPE": "U", "NORAD_CAT_ID": 39360, "ELEMENT_SET_NO": 999, "REV_AT_EPOCH": 4418, "BSTAR": 0, "MEAN_MOTION_DOT": -1.1e-07, "MEAN_MOTION_DDOT": 0}, "tle": {"line1": "1 39360U 13058A   25344.96924443 -.00000011  00000+0  00000+0 0  9998", "line2": "2 39360   0.0087  66.7059 0002856 106.8032 139.1966  1.00269361 44182"}}, "geometry": {"type": "Point", "coordinates": [-85.01095074560345, -0.010806618058685257]}}, {"type": "Feature", "properties": {"norad_id": 40271, "name": "INTELSAT 30 (IS-30)", "group": "intelsat", "lat": -0.02886485242766032, "lon": -63.961114567698544, "alt_km": 35791.188266063305, "timestamp": "2025-12-11T20:41:14.754978+00:00", "meta": {"OBJECT_NAME": "INTELSAT 30 (IS-30)", "OBJECT_ID": "2014-062A", "EPOCH": "2025-12-10T19:56:16.820736", "MEAN_MOTION": 1.00269622, "ECCENTRICITY": 0.0001301, "INCLINATION": 0.0174, "RA_OF_ASC_NODE": 29.1064, "ARG_OF_PERICENTER": 50.969, "MEAN_ANOMALY": 203.7271, "EPHEMERIS_TYPE": 0, "CLASSIFICATION_TYPE": "U", "NORAD_CAT_ID": 40271, "ELEMENT_SET_NO": 999, "REV_AT_EPOCH": 489, "BSTAR": 0, "MEAN_MOTION_DOT": -1.46e-06, "MEAN_MOTION_DDOT": 0}, "tle": {"line1": "1 40271U 14062A   25344.83075024 -.00000146  00000+0  00000+0 0  9994", "line2": "2 40271   0.0174  29.1064 0001301  50.9690 203.7271  1.00269622  4895"}}, "geometry": {"type": "Point", "coordinates": [-63.961114567698544, -0.02886485242766032]}}, {"type": "Feature", "properties": {"norad_id": 40333, "name": "DIRECTV 14", "group": "intelsat", "lat": -0.02055497745724368, "lon": -68.08959579879074, "alt_km": 35787.03976045068, "timestamp": "2025-12-11T20:41:14.754989+00:00", "meta": {"OBJECT_NAME": "DIRECTV 14", "OBJECT_ID": "2014-078B", "EPOCH": "2025-12-10T23:20:34.751616", "MEAN_MOTION": 1.00270629, "ECCENTRICITY": 5.243e-05, "INCLINATION": 0.0172, "RA_OF_ASC_NODE": 324.7094, "ARG_OF_PERICENTER": 220.9679, "MEAN_ANOMALY": 145.1924, "EPHEMERIS_TYPE": 0, "CLASSIFICATION_TYPE": "U", "NORAD_CAT_ID": 40333, "ELEMENT_SET_NO": 999, "REV_AT_EPOCH": 4015, "BSTAR": 0, "MEAN_MOTION_DOT": -1.2e-06, "MEAN_MOTION_DDOT": 0}, "tle": {"line1": "1 40333U 14078B   25344.97262444 -.00000120  00000+0  00000+0 0  9991", "line2": "2 40333   0.0172 324.7094 0000524 220.9679 145.1924  1.00270629 40153"}}, "geometry": {"type": "Point", "coordinates": [-68.08959579879074, -0.02055497745724368]}}, {"type": "Feature", "properties": {"norad_id": 40663, "name": "DIRECTV 15", "group": "intelsat", "lat": -0.029530021993651182, "lon": -71.73762457123844, "alt_km": 35785.10914461645, "timestamp": "2025-12-11T20:41:14.755000+00:00", "meta": {"OBJECT_NAME": "DIRECTV 15", "OBJECT_ID": "2015-026A", "EPOCH": "2025-12-10T23:19:34.847904", "MEAN_MOTION": 1.00272611, "ECCENTRICITY": 2.214e-05, "INCLINATION": 0.0411, "RA_OF_ASC_NODE": 85.413, "ARG_OF_PERICENTER": 166.5843, "MEAN_ANOMALY": 74.9718, "EPHEMERIS_TYPE": 0, "CLASSIFICATION_TYPE": "U", "NORAD_CAT_ID": 40663, "ELEMENT_SET_NO": 999, "REV_AT_EPOCH": 3857, "BSTAR": 0, "MEAN_MOTION_DOT": -9.7e-07, "MEAN_MOTION_DDOT": 0}, "tle": {"line1": "1 40663U 15026A   25344.97193111 -.00000097  00000+0  00000+0 0  9998", "line2": "2 40663   0.0411  85.4130 0000221 166.5843  74.9718  1.00272611 38575"}}, "geometry": {"type": "Point", "coordinates": [-71.73762457123844, -0.029530021993651182]}}]}